start=new Date('2022-09-22T00:00:00.000Z').valueOf();
sats=[{"TLE_LINE2":"2 48276  53.0556 324.4788 0001196  79.0325 281.0798 15.06403349 78175","ELEMENT_SET_NO":"999","TIME_SYSTEM":"UTC","SITE":"AFETR","RCS_SIZE":"LARGE","OBJECT_TYPE":"PAYLOAD","PERIAPSIS":"546.375","CLASSIFICATION_TYPE":"U","DECAY_DATE":null,"OBJECT_NAME":"STARLINK-2567","BSTAR":"-0.00006733300000","ARG_OF_PERICENTER":"79.0325","OBJECT_ID":"2021-036A","GP_ID":"213190572","EPHEMERIS_TYPE":"0","REF_FRAME":"TEME","FILE":"3579752","NORAD_CAT_ID":"48276","MEAN_MOTION":"15.06403349","RA_OF_ASC_NODE":"324.4788","MEAN_MOTION_DOT":"-0.00001284","CENTER_NAME":"EARTH","INCLINATION":"53.0556","COUNTRY_CODE":"US","SEMIMAJOR_AXIS":"6925.338","MEAN_ELEMENT_THEORY":"SGP4","MEAN_ANOMALY":"281.0798","LAUNCH_DATE":"2021-04-29","EPOCH":"2022-09-21T21:39:37.932768","PERIOD":"95.592","APOAPSIS":"548.032","MEAN_MOTION_DDOT":"0.0000000000000","ECCENTRICITY":"0.00011960","TLE_LINE1":"1 48276U 21036A   22264.90252237 -.00001284  00000-0 -67333-4 0  9998","REV_AT_EPOCH":"7817"},{"MEAN_MOTION_DDOT":"0.0000000000000","ECCENTRICITY":"0.00015480","TLE_LINE1":"1 48277U 21036B   22264.57216737  .00000012  00000-0  19682-4 0  9997","REV_AT_EPOCH":"7861","APOAPSIS":"548.286","LAUNCH_DATE":"2021-04-29","EPOCH":"2022-09-21T13:43:55.260768","PERIOD":"95.592","INCLINATION":"53.0538","COUNTRY_CODE":"US","SEMIMAJOR_AXIS":"6925.349","MEAN_ELEMENT_THEORY":"SGP4","MEAN_ANOMALY":"270.8683","MEAN_MOTION":"15.06399872","FILE":"3579752","NORAD_CAT_ID":"48277","RA_OF_ASC_NODE":"290.9626","MEAN_MOTION_DOT":"0.00000012","CENTER_NAME":"EARTH","EPHEMERIS_TYPE":"0","REF_FRAME":"TEME","BSTAR":"0.00001968200000","ARG_OF_PERICENTER":"89.2484","OBJECT_ID":"2021-036B","GP_ID":"213189328","DECAY_DATE":null,"CLASSIFICATION_TYPE":"U","OBJECT_NAME":"STARLINK-2569","PERIAPSIS":"546.142","OBJECT_TYPE":"PAYLOAD","RCS_SIZE":"LARGE","ELEMENT_SET_NO":"999","TIME_SYSTEM":"UTC","SITE":"AFETR","TLE_LINE2":"2 48277  53.0538 290.9626 0001548  89.2484 270.8683 15.06399872 78617"},{"PERIAPSIS":"546.077","GP_ID":"213190079","OBJECT_ID":"2021-036C","ARG_OF_PERICENTER":"71.8815","BSTAR":"0.00017878000000","OBJECT_NAME":"STARLINK-2543","DECAY_DATE":null,"CLASSIFICATION_TYPE":"U","SITE":"AFETR","TIME_SYSTEM":"UTC","ELEMENT_SET_NO":"999","TLE_LINE2":"2 48278  53.0546 306.7501 0001612  71.8815 288.2349 15.06406492 78374","OBJECT_TYPE":"PAYLOAD","RCS_SIZE":"LARGE","REV_AT_EPOCH":"7837","TLE_LINE1":"1 48278U 21036C   22264.41045670  .00002383  00000-0  17878-3 0  9994","ECCENTRICITY":"0.00016120","MEAN_MOTION_DDOT":"0.0000000000000","APOAPSIS":"548.310","CENTER_NAME":"EARTH","MEAN_MOTION_DOT":"0.00002383","RA_OF_ASC_NODE":"306.7501","FILE":"3579752","NORAD_CAT_ID":"48278","MEAN_MOTION":"15.06406492","REF_FRAME":"TEME","EPHEMERIS_TYPE":"0","PERIOD":"95.592","EPOCH":"2022-09-21T09:51:03.458880","LAUNCH_DATE":"2021-04-29","MEAN_ELEMENT_THEORY":"SGP4","SEMIMAJOR_AXIS":"6925.329","MEAN_ANOMALY":"288.2349","COUNTRY_CODE":"US","INCLINATION":"53.0546"},{"OBJECT_ID":"2021-036D","GP_ID":"213190330","BSTAR":"0.00014494000000","ARG_OF_PERICENTER":"62.6797","CLASSIFICATION_TYPE":"U","DECAY_DATE":null,"OBJECT_NAME":"STARLINK-2580","PERIAPSIS":"546.094","OBJECT_TYPE":"PAYLOAD","RCS_SIZE":"MEDIUM","ELEMENT_SET_NO":"999","TIME_SYSTEM":"UTC","SITE":"AFETR","TLE_LINE2":"2 48279  53.0531 308.5034 0001639  62.6797 297.4359 15.06395039 78317","ECCENTRICITY":"0.00016390","REV_AT_EPOCH":"7831","TLE_LINE1":"1 48279U 21036D   22264.00500239  .00001878  00000-0  14494-3 0  9996","MEAN_MOTION_DDOT":"0.0000000000000","APOAPSIS":"548.364","EPOCH":"2022-09-21T00:07:12.206496","PERIOD":"95.592","LAUNCH_DATE":"2021-04-29","SEMIMAJOR_AXIS":"6925.364","MEAN_ELEMENT_THEORY":"SGP4","MEAN_ANOMALY":"297.4359","INCLINATION":"53.0531","COUNTRY_CODE":"US","RA_OF_ASC_NODE":"308.5034","CENTER_NAME":"EARTH","MEAN_MOTION_DOT":"0.00001878","FILE":"3579752","MEAN_MOTION":"15.06395039","NORAD_CAT_ID":"48279","REF_FRAME":"TEME","EPHEMERIS_TYPE":"0"},{"MEAN_MOTION_DOT":"-0.00000574","CENTER_NAME":"EARTH","RA_OF_ASC_NODE":"15.2578","FILE":"3579752","NORAD_CAT_ID":"48280","MEAN_MOTION":"15.06388775","REF_FRAME":"TEME","EPHEMERIS_TYPE":"0","EPOCH":"2022-09-21T17:28:51.493728","PERIOD":"95.593","LAUNCH_DATE":"2021-04-29","MEAN_ELEMENT_THEORY":"SGP4","SEMIMAJOR_AXIS":"6925.383","MEAN_ANOMALY":"277.8914","COUNTRY_CODE":"US","INCLINATION":"53.0575","REV_AT_EPOCH":"7744","TLE_LINE1":"1 48280U 21036E   22264.72837377 -.00000574  00000-0 -19635-4 0  9990","ECCENTRICITY":"0.00011720","MEAN_MOTION_DDOT":"0.0000000000000","APOAPSIS":"548.060","SITE":"AFETR","TIME_SYSTEM":"UTC","ELEMENT_SET_NO":"999","TLE_LINE2":"2 48280  53.0575  15.2578 0001172  82.2208 277.8914 15.06388775 77440","OBJECT_TYPE":"PAYLOAD","RCS_SIZE":"LARGE","PERIAPSIS":"546.436","GP_ID":"213191073","OBJECT_ID":"2021-036E","ARG_OF_PERICENTER":"82.2208","BSTAR":"-0.00001963500000","OBJECT_NAME":"STARLINK-2565","DECAY_DATE":null,"CLASSIFICATION_TYPE":"U"},{"OBJECT_TYPE":"PAYLOAD","RCS_SIZE":"LARGE","TIME_SYSTEM":"UTC","SITE":"AFETR","ELEMENT_SET_NO":"999","TLE_LINE2":"2 48281  53.0552 355.4893 0001382  58.3180 301.7944 15.06402095 77713","GP_ID":"213189829","OBJECT_ID":"2021-036F","ARG_OF_PERICENTER":"58.3180","BSTAR":"0.00000755670000","DECAY_DATE":null,"CLASSIFICATION_TYPE":"U","OBJECT_NAME":"STARLINK-2520","PERIAPSIS":"546.250","PERIOD":"95.592","EPOCH":"2022-09-21T16:11:52.540224","LAUNCH_DATE":"2021-04-29","SEMIMAJOR_AXIS":"6925.342","MEAN_ELEMENT_THEORY":"SGP4","MEAN_ANOMALY":"301.7944","COUNTRY_CODE":"US","INCLINATION":"53.0552","CENTER_NAME":"EARTH","MEAN_MOTION_DOT":"-0.00000169","RA_OF_ASC_NODE":"355.4893","FILE":"3579752","MEAN_MOTION":"15.06402095","NORAD_CAT_ID":"48281","REF_FRAME":"TEME","EPHEMERIS_TYPE":"0","REV_AT_EPOCH":"7771","TLE_LINE1":"1 48281U 21036F   22264.67491366 -.00000169  00000-0  75567-5 0  9995","ECCENTRICITY":"0.00013820","MEAN_MOTION_DDOT":"0.0000000000000","APOAPSIS":"548.164"},{"TLE_LINE2":"2 48282  53.0552   0.3975 0001414  69.4682 290.6458 15.06404388 77653","ELEMENT_SET_NO":"999","TIME_SYSTEM":"UTC","SITE":"AFETR","RCS_SIZE":"LARGE","OBJECT_TYPE":"PAYLOAD","PERIAPSIS":"546.221","DECAY_DATE":null,"CLASSIFICATION_TYPE":"U","OBJECT_NAME":"STARLINK-2558","OBJECT_ID":"2021-036G","GP_ID":"213189579","BSTAR":"0.00001145600000","ARG_OF_PERICENTER":"69.4682","REF_FRAME":"TEME","EPHEMERIS_TYPE":"0","RA_OF_ASC_NODE":"0.3975","CENTER_NAME":"EARTH","MEAN_MOTION_DOT":"-0.00000111","NORAD_CAT_ID":"48282","FILE":"3579752","MEAN_MOTION":"15.06404388","MEAN_ANOMALY":"290.6458","SEMIMAJOR_AXIS":"6925.335","MEAN_ELEMENT_THEORY":"SGP4","INCLINATION":"53.0552","COUNTRY_CODE":"US","EPOCH":"2022-09-21T16:45:42.709536","PERIOD":"95.592","LAUNCH_DATE":"2021-04-29","APOAPSIS":"548.179","ECCENTRICITY":"0.00014140","REV_AT_EPOCH":"7765","TLE_LINE1":"1 48282U 21036G   22264.69841099 -.00000111  00000-0  11456-4 0  9993","MEAN_MOTION_DDOT":"0.0000000000000"},{"APOAPSIS":"548.229","ECCENTRICITY":"0.00014510","REV_AT_EPOCH":"7765","TLE_LINE1":"1 48283U 21036H   22264.69473158 -.00000877  00000-0 -39988-4 0  9991","MEAN_MOTION_DDOT":"0.0000000000000","REF_FRAME":"TEME","EPHEMERIS_TYPE":"0","RA_OF_ASC_NODE":"0.4072","MEAN_MOTION_DOT":"-0.00000877","CENTER_NAME":"EARTH","MEAN_MOTION":"15.06396453","FILE":"3579752","NORAD_CAT_ID":"48283","SEMIMAJOR_AXIS":"6925.359","MEAN_ANOMALY":"285.0674","MEAN_ELEMENT_THEORY":"SGP4","INCLINATION":"53.0556","COUNTRY_CODE":"US","EPOCH":"2022-09-21T16:40:24.808512","PERIOD":"95.592","LAUNCH_DATE":"2021-04-29","PERIAPSIS":"546.220","DECAY_DATE":null,"OBJECT_NAME":"STARLINK-2516","CLASSIFICATION_TYPE":"U","OBJECT_ID":"2021-036H","GP_ID":"213190831","BSTAR":"-0.00003998800000","ARG_OF_PERICENTER":"75.0475","TLE_LINE2":"2 48283  53.0556   0.4072 0001451  75.0475 285.0674 15.06396453 77652","ELEMENT_SET_NO":"999","TIME_SYSTEM":"UTC","SITE":"AFETR","RCS_SIZE":"MEDIUM","OBJECT_TYPE":"PAYLOAD"},{"APOAPSIS":"547.933","ECCENTRICITY":"0.00011050","REV_AT_EPOCH":"7758","TLE_LINE1":"1 48284U 21036J   22264.29296117 -.00001691  00000-0 -94615-4 0  9999","MEAN_MOTION_DDOT":"0.0000000000000","MEAN_ANOMALY":"278.2371","SEMIMAJOR_AXIS":"6925.303","MEAN_ELEMENT_THEORY":"SGP4","INCLINATION":"53.0574","COUNTRY_CODE":"US","EPOCH":"2022-09-21T07:01:51.845088","PERIOD":"95.591","LAUNCH_DATE":"2021-04-29","REF_FRAME":"TEME","EPHEMERIS_TYPE":"0","RA_OF_ASC_NODE":"2.2076","MEAN_MOTION_DOT":"-0.00001691","CENTER_NAME":"EARTH","FILE":"3579752","NORAD_CAT_ID":"48284","MEAN_MOTION":"15.06414900","DECAY_DATE":null,"CLASSIFICATION_TYPE":"U","OBJECT_NAME":"STARLINK-2564","OBJECT_ID":"2021-036J","GP_ID":"213190573","BSTAR":"-0.00009461500000","ARG_OF_PERICENTER":"81.8743","PERIAPSIS":"546.403","RCS_SIZE":"LARGE","OBJECT_TYPE":"PAYLOAD","TLE_LINE2":"2 48284  53.0574   2.2076 0001105  81.8743 278.2371 15.06414900 77584","ELEMENT_SET_NO":"999","TIME_SYSTEM":"UTC","SITE":"AFETR"},{"OBJECT_ID":"2021-036K","GP_ID":"213189329","BSTAR":"-0.00013840000000","ARG_OF_PERICENTER":"76.8991","DECAY_DATE":null,"OBJECT_NAME":"STARLINK-2548","CLASSIFICATION_TYPE":"U","PERIAPSIS":"546.330","OBJECT_TYPE":"PAYLOAD","RCS_SIZE":"LARGE","ELEMENT_SET_NO":"999","TIME_SYSTEM":"UTC","SITE":"AFETR","TLE_LINE2":"2 48285  53.0565   1.9244 0001237  76.8991 283.2136 15.06408850 77596","ECCENTRICITY":"0.00012370","TLE_LINE1":"1 48285U 21036K   22264.35467062 -.00002343  00000-0 -13840-3 0  9991","REV_AT_EPOCH":"7759","MEAN_MOTION_DDOT":"0.0000000000000","APOAPSIS":"548.043","EPOCH":"2022-09-21T08:30:43.541568","PERIOD":"95.592","LAUNCH_DATE":"2021-04-29","MEAN_ELEMENT_THEORY":"SGP4","SEMIMAJOR_AXIS":"6925.321","MEAN_ANOMALY":"283.2136","INCLINATION":"53.0565","COUNTRY_CODE":"US","RA_OF_ASC_NODE":"1.9244","MEAN_MOTION_DOT":"-0.00002343","CENTER_NAME":"EARTH","FILE":"3579752","MEAN_MOTION":"15.06408850","NORAD_CAT_ID":"48285","REF_FRAME":"TEME","EPHEMERIS_TYPE":"0"}];
